NORAD_CAT_ID,OBJECT_NAME,OBJECT_TYPE,EPOCH,MEAN_MOTION,ECCENTRICITY,INCLINATION,RA_OF_ASC_NODE,ARG_OF_PERICENTER,MEAN_ANOMALY,BSTAR,MEAN_MOTION_DOT,MEAN_MOTION_DDOT,TLE_LINE0,TLE_LINE1,TLE_LINE2,SEMIMAJOR_AXIS,PERIOD,APOGEE,PERIGEE,DECAYED
50198.0,STARLINK-3264,PAYLOAD,2022-06-29 12:00:08,15.08835279,0.0002428,53.2191,175.8767,49.3067,310.8136,5.318e-05,5.58e-06,0.0,0 STARLINK-3264,1 50198U 21125AU  22180.50010029  .00000558  00000-0  53180-4 0  9993,2 50198  53.2191 175.8767 0002428  49.3067 310.8136 15.08835279 33053,6917.895,95.438,541.439,538.08,0.0
50198.0,STARLINK-3264,PAYLOAD,2022-06-29 16:46:18,15.08835321,0.0002427,53.2192,174.9847,49.4244,310.6959,5.1042e-05,5.24e-06,0.0,0 STARLINK-3264,1 50198U 21125AU  22180.69882086  .00000524  00000-0  51042-4 0  9991,2 50198  53.2192 174.9847 0002427  49.4244 310.6959 15.08835321 33082,6917.895,95.438,541.439,538.081,0.0
50198.0,STARLINK-3264,PAYLOAD,2022-06-30 08:40:09,15.08837923,0.000247,53.219,172.0111,50.7255,309.3956,5.622e-05,6.06e-06,0.0,0 STARLINK-3264,1 50198U 21125AU  22181.36121994  .00000606  00000-0  56220-4 0  9994,2 50198  53.2190 172.0111 0002470  50.7255 309.3956 15.08837923 33181,6917.887,95.438,541.46,538.043,0.0
50198.0,STARLINK-3264,PAYLOAD,2022-06-30 16:37:05,15.08838747,0.0002509,53.2191,170.5244,50.4221,309.6992,5.9221e-05,6.54e-06,0.0,0 STARLINK-3264,1 50198U 21125AU  22181.69241949  .00000654  00000-0  59221-4 0  9990,2 50198  53.2191 170.5244 0002509  50.4221 309.6992 15.08838747 33239,6917.884,95.438,541.485,538.014,0.0
50198.0,STARLINK-3264,PAYLOAD,2022-07-01 08:30:56,15.08842906,0.0002549,53.2191,167.5509,52.0495,308.0727,5.0313e-05,5.12e-06,0.0,0 STARLINK-3264,1 50198U 21125AU  22182.35481663  .00000512  00000-0  50313-4 0  9999,2 50198  53.2191 167.5509 0002549  52.0495 308.0727 15.08842906 33336,6917.871999999999,95.437,541.5,537.9730000000002,0.0
50198.0,STARLINK-3264,PAYLOAD,2022-07-01 16:27:51,15.08844059,0.0002563999999999,53.2192,166.0642,52.5381,307.5844,5.513e-05,5.89e-06,0.0,0 STARLINK-3264,1 50198U 21125AU  22182.68601475  .00000589  00000-0  55130-4 0  9996,2 50198  53.2192 166.0642 0002564  52.5381 307.5844 15.08844059 33385,6917.868,95.437,541.507,537.9590000000002,0.0
50198.0,STARLINK-3264,PAYLOAD,2022-07-02 08:21:42,15.08847546,0.0002624,53.2191,163.0909,53.4806,306.6428,6.0199e-05,6.7e-06,0.0,0 STARLINK-3264,1 50198U 21125AU  22183.34841000  .00000670  00000-0  60199-4 0  9992,2 50198  53.2191 163.0909 0002624  53.4806 306.6428 15.08847546 33489,6917.857,95.437,541.538,537.9069999999998,0.0
50198.0,STARLINK-3264,PAYLOAD,2022-07-02 16:18:39,15.08837809,0.0002625,53.219,161.6042,53.7916,306.3318,-2.6577e-05,-7.11e-06,0.0,0 STARLINK-3264,1 50198U 21125AU  22183.67961867 -.00000711  00000-0 -26577-4 0  9992,2 50198  53.2190 161.6042 0002625  53.7916 306.3318 15.08837809 33055,6917.887,95.438,541.568,537.936,0.0
50198.0,STARLINK-3264,PAYLOAD,2022-07-03 09:47:53,15.08838992,0.000262,53.2194,158.3334,54.7095,305.4142,-2.2968e-05,-6.54e-06,0.0,0 STARLINK-3264,1 50198U 21125AU  22184.40825793 -.00000654  00000-0 -22968-4 0  9997,2 50198  53.2194 158.3334 0002620  54.7095 305.4142 15.08838992 33644,6917.8830000000025,95.438,541.561,537.936,0.0
50198.0,STARLINK-3264,PAYLOAD,2022-07-04 04:52:30,15.0884076,0.0002638,53.2195,154.7651,56.0085,304.1157,-2.3147e-05,-6.57e-06,0.0,0 STARLINK-3264,1 50198U 21125AU  22185.20313634 -.00000657  00000-0 -23147-4 0  9995,2 50198  53.2195 154.7651 0002638  56.0085 304.1157 15.08840760 33277,6917.878000000002,95.438,541.568,537.918,0.0
50198.0,STARLINK-3264,PAYLOAD,2022-07-04 09:38:40,15.08837956,0.0002636,53.2192,153.8731,55.3339,304.7902,-4.4535e-05,-9.97e-06,0.0,0 STARLINK-3264,1 50198U 21125AU  22185.40185916 -.00000997  00000-0 -44535-4 0  9998,2 50198  53.2192 153.8731 0002636  55.3339 304.7902 15.08837956 33799,6917.887,95.438,541.575,537.928,0.0
50198.0,STARLINK-3264,PAYLOAD,2022-07-04 20:46:22,15.0883338,0.0002624,53.2193,151.7915,55.4058,304.7182,3.6524e-05,2.93e-06,0.0,0 STARLINK-3264,1 50198U 21125AU  22185.86554065  .00000293  00000-0  36524-4 0  9999,2 50198  53.2193 151.7915 0002624  55.4058 304.7182 15.08833380 33862,6917.901,95.438,541.581,537.95,0.0
50198.0,STARLINK-3264,PAYLOAD,2022-07-05 09:29:27,15.08839814,0.0002647,53.2185,149.4128,55.4462,304.678,5.016800000000001e-05,5.1e-06,0.0,0 STARLINK-3264,1 50198U 21125AU  22186.39545764  .00000510  00000-0  50168-4 0  9996,2 50198  53.2185 149.4128 0002647  55.4462 304.6780 15.08839814 33464,6917.880999999999,95.438,541.577,537.915,0.0
50198.0,STARLINK-3264,PAYLOAD,2022-07-06 07:44:51,15.08832665,0.0002887,53.2187,145.25,58.2228,301.9046,-4.5875e-05,-1.019e-05,0.0,0 STARLINK-3264,1 50198U 21125AU  22187.32282360 -.00001019  00000-0 -45875-4 0  9996,2 50198  53.2187 145.2500 0002887  58.2228 301.9046 15.08832665 34082,6917.903,95.438,541.765,537.771,0.0
50198.0,STARLINK-3264,PAYLOAD,2022-07-06 14:06:24,15.08830178,0.0002804,53.2188,144.061,59.2343,300.8925,-3.1356e-06,-3.38e-06,0.0,0 STARLINK-3264,1 50198U 21125AU  22187.58778673 -.00000338  00000-0 -31356-5 0  9994,2 50198  53.2188 144.0610 0002804  59.2343 300.8925 15.08830178 34126,6917.91,95.438,541.715,537.836,0.0
50198.0,STARLINK-3264,PAYLOAD,2022-07-07 09:11:02,15.08838654,0.0002674,53.2179,140.4923,59.7875,300.3382,1.3778e-05,-6.9e-07,0.0,0 STARLINK-3264,1 50198U 21125AU  22188.38266370 -.00000069  00000-0  13778-4 0  9996,2 50198  53.2179 140.4923 0002674  59.7875 300.3382 15.08838654 33761,6917.885,95.438,541.599,537.9,0.0
50198.0,STARLINK-3264,PAYLOAD,2022-07-07 20:18:43,15.08843945,0.0002698,53.218,138.4108,60.3716,299.7544,4.4427e-05,4.19e-06,0.0,0 STARLINK-3264,1 50198U 21125AU  22188.84634000  .00000419  00000-0  44427-4 0  9999,2 50198  53.2180 138.4108 0002698  60.3716 299.7544 15.08843945 34315,6917.868,95.437,541.6,537.867,0.0
50198.0,STARLINK-3264,PAYLOAD,2022-07-08 04:15:38,15.08851846,0.000272,53.2181,136.9239,62.1528,297.974,8.1874e-05,1.015e-05,0.0,0 STARLINK-3264,1 50198U 21125AU  22189.17753319  .00001015  00000-0  81874-4 0  9991,2 50198  53.2181 136.9239 0002720  62.1528 297.9740 15.08851846 33878,6917.844,95.437,541.591,537.828,0.0
50198.0,STARLINK-3264,PAYLOAD,2022-07-08 09:01:47,15.08857797,0.0002721,53.2182,136.0318,63.124,297.003,0.00014122,1.961e-05,0.0,0 STARLINK-3264,1 50198U 21125AU  22189.37624801  .00001961  00000-0  14122-3 0  9997,2 50198  53.2182 136.0318 0002721  63.1240 297.0030 15.08857797 34393,6917.826,95.436,541.573,537.809,0.0
50198.0,STARLINK-3264,PAYLOAD,2022-07-08 13:47:58,15.08835938,0.0002895,53.2171,135.1396,62.7867,297.342,0.00010563,1.393e-05,0.0,0 STARLINK-3264,1 50198U 21125AU  22189.57498360  .00001393  00000-0  10563-3 0  9992,2 50198  53.2171 135.1396 0002895  62.7867 297.3420 15.08835938 34422,6917.893,95.438,541.761,537.755,0.0
50198.0,STARLINK-3264,PAYLOAD,2022-07-09 05:41:49,15.08845928,0.0002648,53.2162,132.1656,63.2063,296.92,0.0001554,2.186e-05,0.0,0 STARLINK-3264,1 50198U 21125AU  22190.23737766  .00002186  00000-0  15540-3 0  9994,2 50198  53.2162 132.1656 0002648  63.2063 296.9200 15.08845928 34047,6917.861999999999,95.437,541.559,537.895,0.0
50198.0,STARLINK-3264,PAYLOAD,2022-07-09 07:17:12,15.08847086,0.0002662,53.2163,131.8685,62.7451,297.3812,0.00019572,2.828e-05,0.0,0 STARLINK-3264,1 50198U 21125AU  22190.30361740  .00002828  00000-0  19572-3 0  9999,2 50198  53.2163 131.8685 0002662  62.7451 297.3812 15.08847086 34532,6917.859,95.437,541.565,537.882,0.0
50198.0,STARLINK-3264,PAYLOAD,2022-07-09 13:38:45,15.08832485,0.0002707,53.2164,130.6791,61.4788,298.6477,-0.00014165,-2.542e-05,0.0,0 STARLINK-3264,1 50198U 21125AU  22190.56858231 -.00002542  00000-0 -14165-3 0  9991,2 50198  53.2164 130.6791 0002707  61.4788 298.6477 15.08832485 34096,6917.903,95.438,541.641,537.896,0.0
50198.0,STARLINK-3264,PAYLOAD,2022-07-10 07:08:00,15.0883853,0.0002634999999999,53.2169,127.408,63.0219,297.1042,0.00013955,1.933e-05,0.0,0 STARLINK-3264,1 50198U 21125AU  22191.29722424  .00001933  00000-0  13955-3 0  9993,2 50198  53.2169 127.4080 0002635  63.0219 297.1042 15.08838530 34687,6917.885,95.438,541.573,537.927,0.0
50198.0,STARLINK-3264,PAYLOAD,2022-07-11 06:58:46,15.08842696,0.0002891,53.2172,122.9488,60.3837,299.7443,0.0001513,2.12e-05,0.0,0 STARLINK-3264,1 50198U 21125AU  22192.29082121  .00002120  00000-0  15130-3 0  9993,2 50198  53.2172 122.9488 0002891  60.3837 299.7443 15.08842696 34831,6917.871999999999,95.437,541.737,537.737,0.0
50198.0,STARLINK-3264,PAYLOAD,2022-07-12 03:38:48,15.08840573,0.0002415,53.2177,119.0827,65.0147,295.1096,9.5365e-05,1.23e-05,0.0,0 STARLINK-3264,1 50198U 21125AU  22193.15194479  .00001230  00000-0  95365-4 0  9999,2 50198  53.2177 119.0827 0002415  65.0147 295.1096 15.08840573 34485,6917.879,95.438,541.414,538.073,0.0
50198.0,STARLINK-3264,PAYLOAD,2022-07-12 06:49:34,15.08842671,0.0002514,53.218,118.4887,64.6662,295.459,0.00014523,2.024e-05,0.0,0 STARLINK-3264,1 50198U 21125AU  22193.28442531  .00002024  00000-0  14523-3 0  9996,2 50198  53.2180 118.4887 0002514  64.6662 295.4590 15.08842671 34983,6917.871999999999,95.437,541.476,537.998,0.0
50198.0,STARLINK-3264,PAYLOAD,2022-07-12 19:32:39,15.08832487,0.0002539,53.2186,116.1083,68.5134,291.6129,1.825e-05,2e-08,0.0,0 STARLINK-3264,1 50198U 21125AU  22193.81435014  .00000002  00000-0  18250-4 0  9999,2 50198  53.2186 116.1083 0002539  68.5134 291.6129 15.08832487 34582,6917.903,95.438,541.525,538.012,0.0
50198.0,STARLINK-3264,PAYLOAD,2022-07-13 11:26:31,15.08844879,0.0002423,53.218,113.1362,64.237,295.8872,0.00030696,4.601e-05,0.0,0 STARLINK-3264,1 50198U 21125AU  22194.47674968  .00004601  00000-0  30696-3 0  9991,2 50198  53.2180 113.1362 0002423  64.2370 295.8872 15.08844879 35164,6917.865,95.437,541.4069999999998,538.054,0.0
